#aV2013  5 25  0  0  0.00000000     288 DD+AD WGS84 FIT  NGA
## 1741 518400.00000000   300.00000000 56437 0.0000000000000
+   30     1  2  3  4  5  6  7  8  9 10 11 12 13 14 15 16 17
+         18 19 20 21 22 23 24 25 26 28 29 31 32  0  0  0  0
+          0  0  0  0  0  0  0  0  0  0  0  0  0  0  0  0  0
+          0  0  0  0  0  0  0  0  0  0  0  0  0  0  0  0  0
+          0  0  0  0  0  0  0  0  0  0  0  0  0  0  0  0  0
++         2  2  2  2  2  2  2  2  2  2  2  2  2  2  2  2  2
++         2  2  2  2  2  2  2  2  2  2  2  2  2  2  2  0  0
++         0  0  0  0  0  0  0  0  0  0  0  0  0  0  0  0  0
++         0  0  0  0  0  0  0  0  0  0  0  0  0  0  0  0  0
++         0  0  0  0  0  0  0  0  0  0  0  0  0  0  0  0  0
%c cc cc ccc ccc cccc cccc cccc cccc ccccc ccccc ccccc ccccc
%c cc cc ccc ccc cccc cccc cccc cccc ccccc ccccc ccccc ccccc
%f  0.0000000  0.000000000  0.00000000000  0.000000000000000
%f  0.0000000  0.000000000  0.00000000000  0.000000000000000
%i    0    0    0    0      0      0      0      0         0
%i    0    0    0    0      0      0      0      0         0
/*      NGA, ST. LOUIS,MO.                                  
/*   EPHEMERIS COMPUTED FROM  1 DAYS OF DATA
/*   EPOCHA SMOOTHER  
/* CCCCCCCCCCCCCCCCCCCCCCCCCCCCCCCCCCCCCCCCCCCCCCCCCCCCCCCCC
*  2013  5 25 10 15  0.00000000                                                 
P  1 -13619.616311  22705.989219  -1375.958800     29.890288                    
V  1  -3398.266472   -143.174392  31724.589693      0.042145                    
P  2  18701.096000  -5829.068559 -17490.017451    433.824689                    
V  2 -10059.879354  20698.756210 -17952.361848      0.018397                    
P  3 -16953.917042   1503.976672  19926.334024    211.456545                    
V  3 -14325.560062 -22319.369277 -10026.811728      0.050425                    
P  4  15033.116464   5737.254977 -21438.506729    227.476814                    
V  4 -14164.585601  22551.295669  -3672.169495      0.104057                    
P  5  26004.501240  -2437.590572   5197.859942   -395.488074                    
V  5   6461.190496   3311.289508 -30477.257556     -0.009349                    
P  6 -18699.153442  -5356.924811  18326.155134    217.160877                    
V  6 -10389.212339 -20619.188090 -16334.983021     -0.165430                    
P  7  -2263.706074  21601.041214  15119.195767    217.654113                    
V  7 -12354.398969  14840.131713 -23405.201570      0.042146                    
P  8   5697.924214  14745.002037  21325.335364      6.345090                    
V  8 -17620.090433  20305.285763  -9954.210413      0.002094                    
P  9  14803.603455   3155.170421  21272.284114    243.252650                    
V  9 -14929.104282  24018.479525   6581.823465      0.024883                    
P 10  22698.718808   9451.356958 -10852.989505    -81.063558                    
V 10 -13382.905815   1596.308332 -26926.170503     -0.013972                    
P 11 -12821.099832  21576.215839   7833.201629   -385.213633                    
V 11  -1832.938056 -11691.386694  27931.160118     -0.036532                    
P 12  14971.662091 -11258.783782 -18778.157048    135.675032                    
V 12  23600.636760   3188.005942  17141.140362      0.020885                    
P 13   3121.297124  24738.987911  -9100.264332    115.944748                    
V 13  -6021.375650  -9853.780508 -29433.475455     -0.036136                    
P 14 -14900.222240 -20271.219379  -8550.718803    220.764851                    
V 14  -2367.818029 -11025.312759  29432.290689     -0.001776                    
P 15   9347.434909 -13984.350332  20472.119151   -120.533420                    
V 15  13581.151591  22423.885666   9357.709302     -0.015462                    
P 16 -26290.985316    535.758987   4854.029224   -251.883492                    
V 16  -5910.901550  -2332.009073 -31279.982175      0.002792                    
P 17  15403.064157  20173.674423  -7999.043496     15.943203                    
V 17   2218.859296  10416.530649  29499.276824     -0.038815                    
P 18  -9379.039058 -15469.104868  19957.441400    255.377536                    
V 18  24516.194762     94.364643  11483.501400      0.018215                    
P 19 -12378.970131   9274.227733  21455.865624   -375.713373                    
V 19 -10793.181933 -25307.427227   5109.734017     -0.030459                    
P 20 -10220.394513  14769.452869 -19719.366055     99.888249                    
V 20 -24810.975105  -1448.397441  11949.790084      0.020695                    
P 21  -2644.185646 -19988.345338  17594.813571   -299.441978                    
V 21  13668.319628 -16811.000349 -18150.155239     -0.021257                    
P 22 -20188.687065 -11233.421534  13424.693037    169.076542                    
V 22  16898.180308  -1974.037288  23968.577930      0.015123                    
P 23  -3039.455478  20271.630290 -16599.861109     82.509086                    
V 23 -11427.411244 -18199.734987 -20441.371084     -0.036031                    
P 24  15528.711988 -21398.332295   2276.667025     -6.972345                    
V 24    890.928444   4019.320582  31559.018860     -0.006741                    
P 25   2228.224025 -14856.013088 -21954.331095    101.610725                    
V 25  27674.250366   1452.061292   1926.862578      0.043534                    
P 26  15580.252448   1177.618851  20894.515397     26.493690                    
V 26   9844.469730  26136.586910  -8238.148119      0.155421                    
P 28  16638.713336  13041.537997  16768.833272    261.564873                    
V 28 -20082.819581  -1071.856406  21343.042389      0.033448                    
P 29  -3602.863036 -24435.458479  -9776.303141    438.798515                    
V 29   7266.008637  10400.276874 -28472.790238      0.035653                    
P 31 -14580.902699  -4372.376383 -21626.841989    315.545903                    
V 31  15461.720577 -23072.181534  -5443.964233      0.012632                    
P 32 -18797.900255   8970.053741 -16039.526427   -557.438630                    
V 32 -20312.613715  -5330.980267  21170.204296     -0.014128                    
EOF
